LEMUR-2-GREENBERG       
1 42837U 17042N   26068.46200528  .00019778  00000+0  72539-3 0  9997
2 42837  97.3781 249.8007 0009157   4.0119 356.1192 15.27971352473146
STARLINK-32922          
1 62926U 25027V   26068.18712558  .00032432  00000+0  11823-2 0  9990
2 62926  42.9987 131.8589 0001178 254.2597 105.8125 15.27595304 61462
